HULIANWANG DIGUI-113    
1 66923U 25285J   26062.48222774 -.00000208  00000+0 -18025-3 0  9990
2 66923  50.0096 164.7765 0000033 334.2633  25.8237 13.29331369 12004
HULIANWANG DIGUI-114    
1 66953U 25287A   26062.45011714  .00000068  00000+0  12448-3 0  9997
2 66953  86.4978 318.1171 0001978  81.3370 278.7988 13.24415520 11347
HULIANWANG DIGUI-115    
1 66954U 25287B   26062.44254527  .00000070  00000+0  12874-3 0  9994
2 66954  86.4994 318.1284 0002063  80.8366 279.3001 13.24415560 11343
HULIANWANG DIGUI-116    
1 66955U 25287C   26062.43499867  .00000095  00000+0  18682-3 0  9992
2 66955  86.4933 318.0686 0002054  80.8330 279.3037 13.24415689 11344
HULIANWANG DIGUI-117    
1 66956U 25287D   26062.50302932  .00000086  00000+0  16676-3 0  9998
2 66956  86.4993 318.0963 0001394  23.3386 336.7811 13.24413718 11358
HULIANWANG DIGUI-118    
1 66957U 25287E   26062.49545993  .00000099  00000+0  19567-3 0  9999
2 66957  86.4969 318.0705 0002045  80.7743 279.3622 13.24415030 11355
HULIANWANG DIGUI-119    
1 67059U 25295A   26061.77708938 -.00000061  00000+0  10828-3 0  9993
2 67059  50.0036  48.6911 0000150 355.1515   4.9366 13.51600384 11329
HULIANWANG DIGUI-120    
1 67060U 25295B   26062.06014924 -.00000066  00000+0  10052-3 0  9997
2 67060  50.0047  47.5238 0001110 314.3064  45.7727 13.51383885 11368
HULIANWANG DIGUI-121    
1 67061U 25295C   26061.84497472 -.00000061  00000+0  10857-3 0  9994
2 67061  50.0011  48.3568 0000790 312.6066  47.4749 13.51739032 11330
HULIANWANG DIGUI-122    
1 67062U 25295D   26061.83166318 -.00000060  00000+0  10895-3 0  9997
2 67062  50.0040  48.3122 0000490 287.0373  73.0455 13.52161141 11332
HULIANWANG DIGUI-123    
1 67063U 25295E   26062.04630323 -.00000048  00000+0  12828-3 0  9998
2 67063  50.0083  47.4662 0001534 339.6386  20.4434 13.51648832 11369
HULIANWANG DIGUI-124    
1 67064U 25295F   26062.04049021 -.00000065  00000+0  10184-3 0  9990
2 67064  50.0003  47.3810 0000799 325.6702  34.4128 13.51837566 11364
HULIANWANG DIGUI-125    
1 67065U 25295G   26062.03394223 -.00000066  00000+0  10069-3 0  9990
2 67065  49.9994  47.3388 0001162 349.2152  10.8705 13.51894465 11367
HULIANWANG DIGUI-126    
1 67066U 25295H   26062.10061632 -.00000085  00000+0  71323-4 0  9996
2 67066  49.9965  47.0294 0000926  93.4870 266.6118 13.51762311 11375
HULIANWANG DIGUI-127    
1 67067U 25295J   26062.09006108 -.00000313  00000+0 -27630-3 0  9998
2 67067  50.0052  46.9878 0000218 340.3613  19.7261 13.51667529 11376
HULIANWANG DIGUI-128    
1 67236U 25311A   26062.12282978 -.00000062  00000+0  12447-3 0  9990
2 67236  50.0073 136.0394 0000608   7.5983 352.4902 13.36474540  9239
